{
  "type": "FeatureCollection",
  "features": [
    {
      "type": "Feature",
      "properties": {
        "norad_id": 55268,
        "name": "GPS BIII-6  (PRN 28)",
        "group": "gnss",
        "lat": 7.378378526946134,
        "lon": -29.566816988764685,
        "alt_km": 20191.96755781661,
        "timestamp": "2025-12-18T04:58:34.821511+00:00",
        "meta_object_name": "GPS BIII-6  (PRN 28)",
        "meta_object_id": "2023-009A",
        "meta_epoch": "2025-12-17T05:26:38.724576",
        "meta_mean_motion": 2.00555443,
        "meta_eccentricity": 0.00036765,
        "meta_inclination": 55.1057,
        "meta_ra_of_asc_node": 155.6691,
        "meta_arg_of_pericenter": 356.3023,
        "meta_mean_anomaly": 186.6763,
        "meta_ephemeris_type": 0,
        "meta_classification_type": "U",
        "meta_norad_cat_id": 55268,
        "meta_element_set_no": 999,
        "meta_rev_at_epoch": 2159,
        "meta_bstar": 0,
        "meta_mean_motion_dot": 7.9e-07,
        "meta_mean_motion_ddot": 0,
        "tle_line1": "1 55268U 23009A   25351.22683709  .00000079  00000+0  00000+0 0  9997",
        "tle_line2": "2 55268  55.1057 155.6691 0003676 356.3023 186.6763  2.00555443 21590"
      },
      "geometry": {
        "type": "Point",
        "coordinates": [
          -29.566816988764685,
          7.378378526946134
        ]
      }
    },
    {
      "type": "Feature",
      "properties": {
        "norad_id": 56564,
        "name": "BEIDOU-3 G4 (C62)",
        "group": "gnss",
        "lat": 0.25659463223225604,
        "lon": -38.22094980719925,
        "alt_km": 35796.31625696472,
        "timestamp": "2025-12-18T04:58:34.821523+00:00",
        "meta_object_name": "BEIDOU-3 G4 (C62)",
        "meta_object_id": "2023-066A",
        "meta_epoch": "2025-12-17T20:56:06.838368",
        "meta_mean_motion": 1.00271722,
        "meta_eccentricity": 0.00027648,
        "meta_inclination": 0.8039,
        "meta_ra_of_asc_node": 302.4518,
        "meta_arg_of_pericenter": 227.2526,
        "meta_mean_anomaly": 31.1294,
        "meta_ephemeris_type": 0,
        "meta_classification_type": "U",
        "meta_norad_cat_id": 56564,
        "meta_element_set_no": 999,
        "meta_rev_at_epoch": 957,
        "meta_bstar": 0,
        "meta_mean_motion_dot": -8.5e-07,
        "meta_mean_motion_ddot": 0,
        "tle_line1": "1 56564U 23066A   25351.87230137 -.00000085  00000+0  00000+0 0  9992",
        "tle_line2": "2 56564   0.8039 302.4518 0002764 227.2526  31.1294  1.00271722  9579"
      },
      "geometry": {
        "type": "Point",
        "coordinates": [
          -38.22094980719925,
          0.25659463223225604
        ]
      }
    },
    {
      "type": "Feature",
      "properties": {
        "norad_id": 56759,
        "name": "NVS-01 (IRNSS-1J)",
        "group": "gnss",
        "lat": 1.6488034716464284,
        "lon": -68.75748076073653,
        "alt_km": 35751.0612083611,
        "timestamp": "2025-12-18T04:58:34.821536+00:00",
        "meta_object_name": "NVS-01 (IRNSS-1J)",
        "meta_object_id": "2023-076A",
        "meta_epoch": "2025-12-17T20:47:22.673760",
        "meta_mean_motion": 1.00275155,
        "meta_eccentricity": 0.00087769,
        "meta_inclination": 2.6062,
        "meta_ra_of_asc_node": 251.4172,
        "meta_arg_of_pericenter": 15.6346,
        "meta_mean_anomaly": 261.0544,
        "meta_ephemeris_type": 0,
        "meta_classification_type": "U",
        "meta_norad_cat_id": 56759,
        "meta_element_set_no": 999,
        "meta_rev_at_epoch": 929,
        "meta_bstar": 0,
        "meta_mean_motion_dot": -3.07e-06,
        "meta_mean_motion_ddot": 0,
        "tle_line1": "1 56759U 23076A   25351.86623465 -.00000307  00000+0  00000+0 0  9995",
        "tle_line2": "2 56759   2.6062 251.4172 0008776  15.6346 261.0544  1.00275155  9293"
      },
      "geometry": {
        "type": "Point",
        "coordinates": [
          -68.75748076073653,
          1.6488034716464284
        ]
      }
    },
    {
      "type": "Feature",
      "properties": {
        "norad_id": 57517,
        "name": "COSMOS 2569 (703K)",
        "group": "gnss",
        "lat": 56.57183654874958,
        "lon": 123.11112741033196,
        "alt_km": 19144.292809469935,
        "timestamp": "2025-12-18T04:58:34.821548+00:00",
        "meta_object_name": "COSMOS 2569 (703K)",
        "meta_object_id": "2023-114A",
        "meta_epoch": "2025-12-17T15:37:24.355776",
        "meta_mean_motion": 2.13104039,
        "meta_eccentricity": 0.00107108,
        "meta_inclination": 65.1967,
        "meta_ra_of_asc_node": 78.7475,
        "meta_arg_of_pericenter": 286.9881,
        "meta_mean_anomaly": 72.9145,
        "meta_ephemeris_type": 0,
        "meta_classification_type": "U",
        "meta_norad_cat_id": 57517,
        "meta_element_set_no": 999,
        "meta_rev_at_epoch": 1839,
        "meta_bstar": 0,
        "meta_mean_motion_dot": -4.6e-07,
        "meta_mean_motion_ddot": 0,
        "tle_line1": "1 57517U 23114A   25351.65097634 -.00000046  00000+0  00000+0 0  9991",
        "tle_line2": "2 57517  65.1967  78.7475 0010710 286.9881  72.9145  2.13104039 18392"
      },
      "geometry": {
        "type": "Point",
        "coordinates": [
          123.11112741033196,
          56.57183654874958
        ]
      }
    },
    {
      "type": "Feature",
      "properties": {
        "norad_id": 58654,
        "name": "BEIDOU-3 M28 (C50)",
        "group": "gnss",
        "lat": -55.56135056187168,
        "lon": -25.1290640631458,
        "alt_km": 21526.879005830433,
        "timestamp": "2025-12-18T04:58:34.821559+00:00",
        "meta_object_name": "BEIDOU-3 M28 (C50)",
        "meta_object_id": "2023-207A",
        "meta_epoch": "2025-12-17T06:29:44.947968",
        "meta_mean_motion": 1.86229839,
        "meta_eccentricity": 0.00025948,
        "meta_inclination": 55.5883,
        "meta_ra_of_asc_node": 68.448,
        "meta_arg_of_pericenter": 271.6936,
        "meta_mean_anomaly": 88.3013,
        "meta_ephemeris_type": 0,
        "meta_classification_type": "U",
        "meta_norad_cat_id": 58654,
        "meta_element_set_no": 999,
        "meta_rev_at_epoch": 1345,
        "meta_bstar": 0,
        "meta_mean_motion_dot": -7.5e-07,
        "meta_mean_motion_ddot": 0,
        "tle_line1": "1 58654U 23207A   25351.27065912 -.00000075  00000+0  00000+0 0  9991",
        "tle_line2": "2 58654  55.5883  68.4480 0002594 271.6936  88.3013  1.86229839 13452"
      },
      "geometry": {
        "type": "Point",
        "coordinates": [
          -25.1290640631458,
          -55.56135056187168
        ]
      }
    },
    {
      "type": "Feature",
      "properties": {
        "norad_id": 58655,
        "name": "BEIDOU-3 M26 (C48)",
        "group": "gnss",
        "lat": 34.748756076321975,
        "lon": 96.75657789482922,
        "alt_km": 21533.031216284282,
        "timestamp": "2025-12-18T04:58:34.821572+00:00",
        "meta_object_name": "BEIDOU-3 M26 (C48)",
        "meta_object_id": "2023-207B",
        "meta_epoch": "2025-12-17T14:31:30.906048",
        "meta_mean_motion": 1.86231342,
        "meta_eccentricity": 0.00040018,
        "meta_inclination": 55.5906,
        "meta_ra_of_asc_node": 68.4229,
        "meta_arg_of_pericenter": 257.9174,
        "meta_mean_anomaly": 102.0639,
        "meta_ephemeris_type": 0,
        "meta_classification_type": "U",
        "meta_norad_cat_id": 58655,
        "meta_element_set_no": 999,
        "meta_rev_at_epoch": 1344,
        "meta_bstar": 0,
        "meta_mean_motion_dot": -7.2e-07,
        "meta_mean_motion_ddot": 0,
        "tle_line1": "1 58655U 23207B   25351.60521882 -.00000072  00000+0  00000+0 0  9999",
        "tle_line2": "2 58655  55.5906  68.4229 0004001 257.9174 102.0639  1.86231342 13445"
      },
      "geometry": {
        "type": "Point",
        "coordinates": [
          96.75657789482922,
          34.748756076321975
        ]
      }
    },
    {
      "type": "Feature",
      "properties": {
        "norad_id": 59598,
        "name": "GSAT0225 (GALILEO 29)",
        "group": "gnss",
        "lat": 27.07794648930134,
        "lon": 127.0917961737602,
        "alt_km": 23224.159877015107,
        "timestamp": "2025-12-18T04:58:34.821586+00:00",
        "meta_object_name": "GSAT0225 (GALILEO 29)",
        "meta_object_id": "2024-079A",
        "meta_epoch": "2025-12-16T09:22:38.225280",
        "meta_mean_motion": 1.70475011,
        "meta_eccentricity": 0.00021396,
        "meta_inclination": 55.0038,
        "meta_ra_of_asc_node": 106.1932,
        "meta_arg_of_pericenter": 182.0305,
        "meta_mean_anomaly": 176.7742,
        "meta_ephemeris_type": 0,
        "meta_classification_type": "U",
        "meta_norad_cat_id": 59598,
        "meta_element_set_no": 999,
        "meta_rev_at_epoch": 1019,
        "meta_bstar": 0,
        "meta_mean_motion_dot": -1e-07,
        "meta_mean_motion_ddot": 0,
        "tle_line1": "1 59598U 24079A   25350.39072020 -.00000010  00000+0  00000+0 0  9996",
        "tle_line2": "2 59598  55.0038 106.1932 0002139 182.0305 176.7742  1.70475011 10196"
      },
      "geometry": {
        "type": "Point",
        "coordinates": [
          127.0917961737602,
          27.07794648930134
        ]
      }
    }
  ]
}